OBJECT_NAME,OBJECT_ID,EPOCH,MEAN_MOTION,ECCENTRICITY,INCLINATION,RA_OF_ASC_NODE,ARG_OF_PERICENTER,MEAN_ANOMALY,EPHEMERIS_TYPE,CLASSIFICATION_TYPE,NORAD_CAT_ID,ELEMENT_SET_NO,REV_AT_EPOCH,BSTAR,MEAN_MOTION_DOT,MEAN_MOTION_DDOT
STARLINK-32267,2024-138J,2026-06-14T09:55:45.198048,15.30196456,.0001344,53.1599,220.5325,95.1329,264.9826,0,U,60363,999,10543,.40407E-4,.838E-5,0
STARLINK-32270,2024-138K,2026-06-14T11:04:45.088608,15.31700758,.000138,53.1608,220.1246,90.7940,269.3219,0,U,60364,999,10534,-.15563E-4,-.848E-5,0
STARLINK-32188,2024-138L,2026-06-14T08:59:41.455968,15.29545117,.0010123,53.1604,220.2961,94.5720,265.6437,0,U,60365,999,10543,-.98746E-2,-.277162E-2,0
STARLINK-32230,2024-138M,2026-06-14T09:52:43.720032,15.30184232,.0000926,53.1589,220.5235,86.8638,273.2468,0,U,60366,999,10543,-.75775E-4,-.2601E-4,0
STARLINK-32243,2024-138N,2026-06-14T10:51:18.390816,15.31699811,.0001174,53.1599,220.0626,99.1795,260.9340,0,U,60367,999,10544,.52199E-4,.1255E-4,0
STARLINK-32271,2024-138P,2026-06-14T10:06:23.680224,15.30196784,.0001438,53.1601,220.5811,90.7488,269.3678,0,U,60368,999,10543,.227E-4,.313E-5,0
STARLINK-32220,2024-138R,2026-06-14T11:20:41.661888,15.30193457,.0001227,53.1602,220.1864,99.6210,260.4929,0,U,60370,999,10544,-.25781E-4,-.1122E-4,0
STARLINK-32263,2024-138S,2026-06-14T10:22:56.773056,15.30197652,.0001344,53.1598,219.9421,88.3405,271.7749,0,U,60371,999,10534,.81648E-5,-.117E-5,0
STARLINK-32268,2024-138T,2026-06-14T10:07:53.753952,15.30204119,.0001027,53.1596,220.5895,83.7440,276.3678,0,U,60372,999,10543,.11192E-3,.2958E-4,0
STARLINK-32223,2024-138U,2026-06-14T10:44:35.361600,15.31701914,.0001388,53.1605,220.0356,117.9163,242.1979,0,U,60373,999,10534,-.28175E-4,-.1239E-4,0
STARLINK-32180,2024-138V,2026-06-14T10:24:24.931296,15.31710258,.0001348,53.1614,219.9503,102.7677,257.3475,0,U,60374,999,10544,.16348E-5,-.314E-5,0
STARLINK-32281,2024-138W,2026-06-14T10:36:37.609344,15.30194928,.000124,53.1608,220.0016,99.4249,260.6892,0,U,60375,999,10534,-.55864E-5,-.525E-5,0
STARLINK-32277,2024-138X,2026-06-14T11:25:15.409056,15.30187944,.0001241,53.1595,220.2072,86.6848,273.4294,0,U,60376,999,10544,-.4479E-6,-.372E-5,0
STARLINK-32269,2024-138Y,2026-06-14T12:00:02.998944,15.31688773,.0001304,53.1577,219.8893,76.2518,161.4977,0,U,60377,999,585,.71756E-3,.2196E-3,0
STARLINK-11228 [DTC],2024-141A,2026-06-13T18:32:48.100416,15.69711921,.00008075,53.1583,332.6268,103.1486,256.9622,0,U,60398,999,10678,.6732176E-5,.228E-5,0
STARLINK-11182 [DTC],2024-141B,2026-06-13T18:11:37.420800,15.69701718,.00009445,53.1599,332.5289,97.3657,262.7469,0,U,60399,999,10683,-.8530201E-5,-.1621E-4,0
STARLINK-11234 [DTC],2024-141C,2026-06-13T18:04:33.640032,15.69700067,.00012379,53.1603,332.4923,78.1398,281.9759,0,U,60400,999,10678,-.306535E-6,-.626E-5,0
STARLINK-11232 [DTC],2024-141D,2026-06-13T22:32:32.388000,15.69703464,.0000954,53.1586,331.5207,80.5736,279.5390,0,U,60401,999,10686,-.26218E-5,-.906E-5,0
STARLINK-11139 [DTC],2024-141E,2026-06-14T04:32:11.972544,15.69718746,.00009334,53.1599,330.2350,75.9179,284.1942,0,U,60402,999,10690,.1002265E-4,.626E-5,0
STARLINK-11158 [DTC],2024-141F,2026-06-14T04:25:17.084064,15.69715122,.00009561,53.1600,330.9346,67.1331,292.9788,0,U,60403,999,10684,.14243152E-4,.1138E-4,0
STARLINK-11199 [DTC],2024-141G,2026-06-14T04:18:12.719232,15.69728154,.00005343,53.1584,330.8978,97.3473,262.7606,0,U,60404,999,10689,.31807875E-4,.327E-4,0
STARLINK-11081 [DTC],2024-141H,2026-06-13T17:29:23.194752,15.69697336,.00005633,53.1577,333.0618,80.5587,279.5494,0,U,60405,999,10677,-.4198231E-5,-.1096E-4,0
STARLINK-11150 [DTC],2024-141J,2026-06-13T17:22:19.299072,15.69702475,.0001212,53.1605,333.0295,102.4953,257.6201,0,U,60406,999,10682,.2830503E-5,-.246E-5,0
STARLINK-11136 [DTC],2024-141K,2026-06-14T03:57:01.991232,15.69709741,.00014165,53.1606,330.8011,114.1051,246.0115,0,U,60407,999,10684,.13439343E-4,.1039E-4,0
STARLINK-11196 [DTC],2024-141L,2026-06-14T03:49:57.743904,15.69715502,.00008453,53.1581,330.7700,124.6131,235.4967,0,U,60408,999,10689,.14182674E-4,.1131E-4,0
STARLINK-11174 [DTC],2024-141M,2026-06-13T18:25:44.080320,15.69711926,.00008975,53.1585,332.5878,120.1093,240.0014,0,U,60409,999,10678,.957654E-5,.572E-5,0
STARLINK-11191 [DTC],2024-141N,2026-06-13T18:18:40.723776,15.69706569,.00010446,53.1595,332.5559,119.8280,240.2842,0,U,60410,999,10683,.3952472E-5,-.11E-5,0
STARLINK-32244,2024-141P,2026-06-14T05:18:30.062592,15.31693742,.0001288,53.1591,153.9525,91.1326,268.9823,0,U,60411,999,10436,-.16206E-4,-.868E-5,0
STARLINK-32186,2024-141Q,2026-06-14T06:05:52.602720,15.34391120,.0001145,53.1603,152.7435,95.7967,264.3166,0,U,60412,999,10432,.14924E-4,.128E-5,0
STARLINK-32178,2024-141R,2026-06-14T05:53:45.748032,15.34394139,.0001289,53.1603,152.6877,89.8724,270.2426,0,U,60413,999,10432,-.28212E-4,-.1329E-4,0
STARLINK-32234,2024-141S,2026-06-14T06:39:00.569088,15.31691602,.000123,53.1594,153.5894,91.2583,268.8559,0,U,60414,999,10437,.38061E-4,.816E-5,0
STARLINK-32265,2024-141T,2026-06-14T06:02:50.965728,15.34390512,.0001244,53.1599,152.7286,85.5552,274.5593,0,U,60415,999,10438,-.72598E-5,-.621E-5,0
STARLINK-32197,2024-141U,2026-06-14T05:08:23.463744,15.31709253,.00011533,53.1602,143.9470,81.6159,278.4973,0,U,60416,999,10444,.47780309E-4,.1118E-4,0
STARLINK-32255,2024-141V,2026-06-14T06:39:12.794688,15.34385662,.0001196,53.1605,152.8841,84.8227,275.2912,0,U,60417,999,10438,.42473E-5,-.233E-5,0
STARLINK-32236,2024-141W,2026-06-14T06:42:14.478336,15.34384457,.000138,53.1602,152.8941,92.2658,267.8502,0,U,60418,999,10438,-.52971E-5,-.555E-5,0
STARLINK-32250,2024-144A,2026-06-14T04:40:08.709600,15.34398468,.00011086,53.1617,128.9410,80.2061,279.9067,0,U,60425,999,10318,.2897841E-5,-.278E-5,0
STARLINK-32226,2024-144B,2026-06-14T12:00:02.998944,15.34423427,.0001276,53.1581,127.5807,80.6629,132.8888,0,U,60426,999,590,-.38294E-3,-.13301E-3,0
STARLINK-32254,2024-144C,2026-06-14T12:00:02.998944,15.34398091,.0001415,53.1590,127.4889,89.2091,170.9494,0,U,60427,999,575,-.44165E-3,-.15268E-3,0
STARLINK-32193,2024-144D,2026-06-14T12:00:02.998944,15.33566440,.0001093,53.1585,127.6419,83.8373,97.8955,0,U,60428,999,575,-.40578E-3,-.13701E-3,0
STARLINK-32242,2024-144E,2026-06-14T04:51:53.669664,15.30191362,.00014494,53.1608,128.9904,92.3259,267.7908,0,U,60429,999,10412,-.4509682E-5,-.493E-5,0
STARLINK-32196,2024-144F,2026-06-14T04:33:24.558048,15.34383018,.00013582,53.1602,127.4948,100.0904,260.0251,0,U,60430,999,10410,-.27885632E-4,-.1318E-4,0
STARLINK-32232,2024-144G,2026-06-14T04:57:58.187808,15.30188785,.00010452,53.1595,129.0148,119.7715,240.3390,0,U,60431,999,10408,-.12213363E-4,-.721E-5,0
STARLINK-32246,2024-144H,2026-06-14T10:56:37.694112,15.30794223,.0001713,53.1603,127.7271,133.9768,226.1375,0,U,60432,999,10412,.25561E-2,.77558E-3,0
STARLINK-32183,2024-144J,2026-06-14T03:04:09.940512,15.30191022,.00014102,53.1603,129.2339,102.3969,257.7189,0,U,60433,999,10407,-.16966611E-4,-.862E-5,0
STARLINK-32233,2024-144K,2026-06-14T03:05:39.963264,15.34387823,.00013679,53.1600,127.8218,91.6451,268.4708,0,U,60434,999,10409,.2520646E-4,.475E-5,0
STARLINK-32222,2024-144L,2026-06-14T04:21:16.047936,15.34400850,.00012322,53.1598,127.4398,91.6062,268.5081,0,U,60435,999,10410,-.5184129E-5,-.551E-5,0
STARLINK-32229,2024-144M,2026-06-14T04:12:11.501568,15.34388908,.0001343,53.1599,127.3993,82.4685,277.6470,0,U,60436,999,10410,-.10452738E-4,-.729E-5,0
STARLINK-32241,2024-144N,2026-06-14T04:48:32.847552,15.34383636,.00013972,53.1608,127.5513,73.0378,287.0778,0,U,60437,999,10410,.58624387E-4,.1604E-4,0
STARLINK-32240,2024-144P,2026-06-14T04:09:09.829152,15.34386752,.00012816,53.1598,127.3858,78.6277,281.4870,0,U,60438,999,10414,-.21532384E-4,-.1103E-4,0
STARLINK-32231,2024-144Q,2026-06-14T04:36:26.646048,15.34394636,.00011451,53.1596,127.5042,103.4821,256.6309,0,U,60439,999,10320,.48477217E-4,.1262E-4,0
STARLINK-32195,2024-144R,2026-06-14T04:03:06.224256,15.34385548,.00016221,53.1605,127.3625,98.2143,261.9043,0,U,60440,999,10410,-.3693812E-4,-.1624E-4,0
STARLINK-32177,2024-144S,2026-06-14T03:50:59.158752,15.34382641,.00014786,53.1612,127.3077,92.0735,268.0437,0,U,60441,999,10410,-.20084395E-4,-.1054E-4,0
STARLINK-32252,2024-144T,2026-06-14T04:06:08.107488,15.34386526,.00013476,53.1611,127.3710,81.0989,279.0166,0,U,60442,999,10414,-.34800177E-4,-.1551E-4,0
STARLINK-32237,2024-144U,2026-06-14T04:45:31.489632,15.34393084,.00016292,53.1612,127.5363,77.5895,282.5290,0,U,60443,999,10410,-.28697075E-4,-.1346E-4,0
STARLINK-32249,2024-144V,2026-06-14T04:24:18.777024,15.34386254,.00010223,53.1603,127.4486,89.6988,270.4132,0,U,60444,999,10414,.26551946E-4,.521E-5,0
STARLINK-32228,2024-144W,2026-06-14T05:12:39.797856,15.34383074,.0001307,53.1596,126.9497,87.8204,272.2949,0,U,60445,999,10415,-.24631E-4,-.1208E-4,0
STARLINK-32247,2024-144X,2026-06-14T03:46:38.856288,15.30175900,.00009474,53.1613,118.6228,100.6365,259.4743,0,U,60446,999,10426,.85052122E-4,.2159E-4,0
STARLINK-32101,2024-144Y,2026-06-14T03:44:55.533120,15.34383176,.00015097,53.1610,127.2813,91.3154,268.8021,0,U,60447,999,10410,.9403863E-5,-.59E-6,0
STARLINK-31844,2024-150A,2026-06-14T10:09:25.412256,15.31705606,.0000917,53.1601,216.8703,86.9672,273.1435,0,U,60583,999,10286,.16626E-4,.151E-5,0
STARLINK-32204,2024-150B,2026-06-14T09:11:12.585120,15.34384525,.0001414,53.1620,216.6144,100.3767,259.7395,0,U,60584,999,10286,.44064E-4,.1112E-4,0
STARLINK-32130,2024-150C,2026-06-14T10:58:39.811008,15.30161172,.000107,53.1594,217.7859,93.1440,266.9684,0,U,60585,999,10277,-.12712E-3,-.4117E-4,0
STARLINK-32173,2024-150D,2026-06-14T09:56:31.276032,15.34390244,.0001209,53.1593,216.0998,81.4003,278.7137,0,U,60586,999,10287,-.41691E-5,-.517E-5,0
STARLINK-31911,2024-150E,2026-06-14T10:38:58.051680,15.34384123,.0001494,53.1589,216.2908,89.4405,270.6769,0,U,60587,999,10279,-.47845E-6,-.393E-5,0
STARLINK-31994,2024-150F,2026-06-14T09:47:25.776672,15.34392640,.0001484,53.1590,216.0612,82.4056,277.7115,0,U,60588,999,10279,-.15866E-4,-.912E-5,0
